{"type": "FeatureCollection", "features": [ {"type": "Feature", "properties": {"norad_id": 32343, "name": "FENGYUN 1C DEB", "group": "fengyun-1c-debris", "lat": -80.01925384888193, "lon": 97.43672044584484, "alt_km": 924.7901128177355, "timestamp": "2025-12-16T03:53:27.342395+00:00", "meta": {"OBJECT_NAME": "FENGYUN 1C DEB", "OBJECT_ID": "1999-025CYL", "EPOCH": "2025-12-13T05:18:56.833632", "MEAN_MOTION": 14.19848796, "ECCENTRICITY": 0.01521973, "INCLINATION": 98.6084, "RA_OF_ASC_NODE": 333.9812, "ARG_OF_PERICENTER": 126.2805, "MEAN_ANOMALY": 235.2541, "EPHEMERIS_TYPE": 0, "CLASSIFICATION_TYPE": "U", "NORAD_CAT_ID": 32343, "ELEMENT_SET_NO": 999, "REV_AT_EPOCH": 64720, "BSTAR": 0.00041342117, "MEAN_MOTION_DOT": 9.43e-06, "MEAN_MOTION_DDOT": 0}, "tle": {"line1": "1 32343U 99025CYL 25347.22149113  .00000943  00000+0  41342-3 0  9996", "line2": "2 32343  98.6084 333.9812 0152197 126.2805 235.2541 14.19848796647208"}}, "geometry": {"type": "Point", "coordinates": [97.43672044584484, -80.01925384888193]}}, {"type": "Feature", "properties": {"norad_id": 32350, "name": "FENGYUN 1C DEB", "group": "fengyun-1c-debris", "lat": -39.09713571084905, "lon": -151.90690822641105, "alt_km": 650.2264350663836, "timestamp": "2025-12-16T03:53:27.342405+00:00", "meta": {"OBJECT_NAME": "FENGYUN 1C DEB", "OBJECT_ID": "1999-025CYT", "EPOCH": "2025-12-14T09:31:41.023776", "MEAN_MOTION": 14.52585967, "ECCENTRICITY": 0.02665518, "INCLINATION": 98.2297, "RA_OF_ASC_NODE": 33.1134, "ARG_OF_PERICENTER": 293.5046, "MEAN_ANOMALY": 63.8346, "EPHEMERIS_TYPE": 0, "CLASSIFICATION_TYPE": "U", "NORAD_CAT_ID": 32350, "ELEMENT_SET_NO": 999, "REV_AT_EPOCH": 97551, "BSTAR": 0.00074129025, "MEAN_MOTION_DOT": 4.788e-05, "MEAN_MOTION_DDOT": 0}, "tle": {"line1": "1 32350U 99025CYT 25348.39700259  .00004788  00000+0  74129-3 0  9997", "line2": "2 32350  98.2297  33.1134 0266551 293.5046  63.8346 14.52585967975510"}}, "geometry": {"type": "Point", "coordinates": [-151.90690822641105, -39.09713571084905]}}, {"type": "Feature", "properties": {"norad_id": 32352, "name": "FENGYUN 1C DEB", "group": "fengyun-1c-debris", "lat": -7.769422326173392, "lon": 89.05658902955884, "alt_km": 679.8409918425905, "timestamp": "2025-12-16T03:53:27.342415+00:00", "meta": {"OBJECT_NAME": "FENGYUN 1C DEB", "OBJECT_ID": "1999-025CYV", "EPOCH": "2025-12-12T12:23:45.025440", "MEAN_MOTION": 14.41420955, "ECCENTRICITY": 0.01220074, "INCLINATION": 98.7776, "RA_OF_ASC_NODE": 266.5198, "ARG_OF_PERICENTER": 171.7067, "MEAN_ANOMALY": 188.6176, "EPHEMERIS_TYPE": 0, "CLASSIFICATION_TYPE": "U", "NORAD_CAT_ID": 32352, "ELEMENT_SET_NO": 999, "REV_AT_EPOCH": 65266, "BSTAR": 0.00034517758, "MEAN_MOTION_DOT": 1.172e-05, "MEAN_MOTION_DDOT": 0}, "tle": {"line1": "1 32352U 99025CYV 25346.51649335  .00001172  00000+0  34518-3 0  9990", "line2": "2 32352  98.7776 266.5198 0122007 171.7067 188.6176 14.41420955652666"}}, "geometry": {"type": "Point", "coordinates": [89.05658902955884, -7.769422326173392]}}, {"type": "Feature", "properties": {"norad_id": 32353, "name": "FENGYUN 1C DEB", "group": "fengyun-1c-debris", "lat": -74.3933793874153, "lon": -47.643945194096084, "alt_km": 851.9377875387154, "timestamp": "2025-12-16T03:53:27.342426+00:00", "meta": {"OBJECT_NAME": "FENGYUN 1C DEB", "OBJECT_ID": "1999-025CYW", "EPOCH": "2025-12-14T18:10:27.215616", "MEAN_MOTION": 14.03836024, "ECCENTRICITY": 0.01250888, "INCLINATION": 98.9217, "RA_OF_ASC_NODE": 165.1959, "ARG_OF_PERICENTER": 193.6238, "MEAN_ANOMALY": 166.1542, "EPHEMERIS_TYPE": 0, "CLASSIFICATION_TYPE": "U", "NORAD_CAT_ID": 32353, "ELEMENT_SET_NO": 999, "REV_AT_EPOCH": 63222, "BSTAR": 0.0024513199, "MEAN_MOTION_DOT": 4.1e-05, "MEAN_MOTION_DDOT": 0}, "tle": {"line1": "1 32353U 99025CYW 25348.75725944  .00004100  00000+0  24513-2 0  9997", "line2": "2 32353  98.9217 165.1959 0125088 193.6238 166.1542 14.03836024632227"}}, "geometry": {"type": "Point", "coordinates": [-47.643945194096084, -74.3933793874153]}}, {"type": "Feature", "properties": {"norad_id": 32355, "name": "FENGYUN 1C DEB", "group": "fengyun-1c-debris", "lat": 75.92749693250065, "lon": -126.66516399669914, "alt_km": 427.36641455327026, "timestamp": "2025-12-16T03:53:27.342436+00:00", "meta": {"OBJECT_NAME": "FENGYUN 1C DEB", "OBJECT_ID": "1999-025CYY", "EPOCH": "2025-11-30T13:45:12.852288", "MEAN_MOTION": 15.2698689, "ECCENTRICITY": 0.00340494, "INCLINATION": 100.3462, "RA_OF_ASC_NODE": 258.4114, "ARG_OF_PERICENTER": 91.868, "MEAN_ANOMALY": 83.2659, "EPHEMERIS_TYPE": 0, "CLASSIFICATION_TYPE": "U", "NORAD_CAT_ID": 32355, "ELEMENT_SET_NO": 999, "REV_AT_EPOCH": 64804, "BSTAR": 0.0114101, "MEAN_MOTION_DOT": 0.00320062, "MEAN_MOTION_DDOT": 0}, "tle": {"line1": "1 32355U 99025CYY 25334.57306542  .00320062  00000+0  11410-1 0  9992", "line2": "2 32355 100.3462 258.4114 0034049  91.8680  83.2659 15.26986890648042"}}, "geometry": {"type": "Point", "coordinates": [-126.66516399669914, 75.92749693250065]}}, {"type": "Feature", "properties": {"norad_id": 32356, "name": "FENGYUN 1C DEB", "group": "fengyun-1c-debris", "lat": 76.9225248997994, "lon": 140.98563040611003, "alt_km": 855.8537943673982, "timestamp": "2025-12-16T03:53:27.342446+00:00", "meta": {"OBJECT_NAME": "FENGYUN 1C DEB", "OBJECT_ID": "1999-025CYZ", "EPOCH": "2025-12-14T13:50:56.745024", "MEAN_MOTION": 14.03395908, "ECCENTRICITY": 0.01254065, "INCLINATION": 102.4958, "RA_OF_ASC_NODE": 211.4936, "ARG_OF_PERICENTER": 11.1704, "MEAN_ANOMALY": 349.2188, "EPHEMERIS_TYPE": 0, "CLASSIFICATION_TYPE": "U", "NORAD_CAT_ID": 32356, "ELEMENT_SET_NO": 999, "REV_AT_EPOCH": 68413, "BSTAR": 0.0020408493, "MEAN_MOTION_DOT": 3.35e-05, "MEAN_MOTION_DDOT": 0}, "tle": {"line1": "1 32356U 99025CYZ 25348.57704566  .00003350  00000+0  20408-2 0  9992", "line2": "2 32356 102.4958 211.4936 0125406  11.1704 349.2188 14.03395908684137"}}, "geometry": {"type": "Point", "coordinates": [140.98563040611003, 76.9225248997994]}}, {"type": "Feature", "properties": {"norad_id": 32357, "name": "FENGYUN 1C DEB", "group": "fengyun-1c-debris", "lat": -33.33469585709738, "lon": -156.64928132255127, "alt_km": 708.3945875617919, "timestamp": "2025-12-16T03:53:27.342457+00:00", "meta": {"OBJECT_NAME": "FENGYUN 1C DEB", "OBJECT_ID": "1999-025CZA", "EPOCH": "2025-12-13T21:20:47.666112", "MEAN_MOTION": 13.68708108, "ECCENTRICITY": 0.04907347, "INCLINATION": 98.8577, "RA_OF_ASC_NODE": 27.1403, "ARG_OF_PERICENTER": 184.5127, "MEAN_ANOMALY": 353.61, "EPHEMERIS_TYPE": 0, "CLASSIFICATION_TYPE": "U", "NORAD_CAT_ID": 32357, "ELEMENT_SET_NO": 999, "REV_AT_EPOCH": 66803, "BSTAR": 0.0036548407, "MEAN_MOTION_DOT": 7.308e-05, "MEAN_MOTION_DDOT": 0}, "tle": {"line1": "1 32357U 99025CZA 25347.88944058  .00007308  00000+0  36548-2 0  9997", "line2": "2 32357  98.8577  27.1403 0490734 184.5127 353.6100 13.68708108668031"}}, "geometry": {"type": "Point", "coordinates": [-156.64928132255127, -33.33469585709738]}}, {"type": "Feature", "properties": {"norad_id": 32361, "name": "FENGYUN 1C DEB", "group": "fengyun-1c-debris", "lat": 55.6101253196068, "lon": 36.10460370891967, "alt_km": 686.720715909828, "timestamp": "2025-12-16T03:53:27.342468+00:00", "meta": {"OBJECT_NAME": "FENGYUN 1C DEB", "OBJECT_ID": "1999-025CZE", "EPOCH": "2025-12-15T02:48:35.848512", "MEAN_MOTION": 14.51084965, "ECCENTRICITY": 0.00458066, "INCLINATION": 98.8602, "RA_OF_ASC_NODE": 48.1778, "ARG_OF_PERICENTER": 37.1218, "MEAN_ANOMALY": 323.3128, "EPHEMERIS_TYPE": 0, "CLASSIFICATION_TYPE": "U", "NORAD_CAT_ID": 32361, "ELEMENT_SET_NO": 999, "REV_AT_EPOCH": 96379, "BSTAR": 0.0011775791, "MEAN_MOTION_DOT": 4.681e-05, "MEAN_MOTION_DDOT": 0}, "tle": {"line1": "1 32361U 99025CZE 25349.11708158  .00004681  00000+0  11776-2 0  9996", "line2": "2 32361  98.8602  48.1778 0045806  37.1218 323.3128 14.51084965963799"}}, "geometry": {"type": "Point", "coordinates": [36.10460370891967, 55.6101253196068]}}, {"type": "Feature", "properties": {"norad_id": 32362, "name": "FENGYUN 1C DEB", "group": "fengyun-1c-debris", "lat": 79.5422015432259, "lon": -148.43435100722647, "alt_km": 1211.9726250775939, "timestamp": "2025-12-16T03:53:27.342478+00:00", "meta": {"OBJECT_NAME": "FENGYUN 1C DEB", "OBJECT_ID": "1999-025CZF", "EPOCH": "2025-12-14T21:31:09.634656", "MEAN_MOTION": 13.65205653, "ECCENTRICITY": 0.02743617, "INCLINATION": 99.8445, "RA_OF_ASC_NODE": 320.1086, "ARG_OF_PERICENTER": 279.8616, "MEAN_ANOMALY": 77.1657, "EPHEMERIS_TYPE": 0, "CLASSIFICATION_TYPE": "U", "NORAD_CAT_ID": 32362, "ELEMENT_SET_NO": 999, "REV_AT_EPOCH": 91159, "BSTAR": 0.0023704806, "MEAN_MOTION_DOT": 2.44e-05, "MEAN_MOTION_DDOT": 0}, "tle": {"line1": "1 32362U 99025CZF 25348.89663929  .00002440  00000+0  23705-2 0  9993", "line2": "2 32362  99.8445 320.1086 0274361 279.8616  77.1657 13.65205653911593"}}, "geometry": {"type": "Point", "coordinates": [-148.43435100722647, 79.5422015432259]}}, {"type": "Feature", "properties": {"norad_id": 32363, "name": "FENGYUN 1C DEB", "group": "fengyun-1c-debris", "lat": -78.49586581804931, "lon": -5.2916178196222425, "alt_km": 466.073054240469, "timestamp": "2025-12-16T03:53:27.342488+00:00", "meta": {"OBJECT_NAME": "FENGYUN 1C DEB", "OBJECT_ID": "1999-025CZG", "EPOCH": "2025-12-15T08:05:03.090912", "MEAN_MOTION": 15.48194562, "ECCENTRICITY": 0.00639003, "INCLINATION": 98.3305, "RA_OF_ASC_NODE": 307.7062, "ARG_OF_PERICENTER": 132.0614, "MEAN_ANOMALY": 228.6095, "EPHEMERIS_TYPE": 0, "CLASSIFICATION_TYPE": "U", "NORAD_CAT_ID": 32363, "ELEMENT_SET_NO": 999, "REV_AT_EPOCH": 96848, "BSTAR": 0.0011592589, "MEAN_MOTION_DOT": 0.00066507, "MEAN_MOTION_DDOT": 0}, "tle": {"line1": "1 32363U 99025CZG 25349.33684133  .00066507  00000+0  11593-2 0  9990", "line2": "2 32363  98.3305 307.7062 0063900 132.0614 228.6095 15.48194562968489"}}, "geometry": {"type": "Point", "coordinates": [-5.2916178196222425, -78.49586581804931]}}]}